327P/VanNess,e,36.2505,173.9838,185.0221,3.562529,0.1465772,0.56322666,17.5343,12/31.0/2022,2000,g 16.0,4.0
# From MPC109148
328P/LONEOS-Tucker,e,17.6724,341.6268,30.5777,4.190952,0.1148775,0.55272464,293.9584,12/31.0/2022,2000,g 14.5,4.0
# From MPC101101
329P/LINEAR-Catalina,e,21.7039,87.6559,343.5451,5.188271,0.0834008,0.67816746,215.7302,12/31.0/2022,2000,g 13.5,4.0
# From MPEC 2022-K19
330P/Catalina,e,15.7091,293.0831,188.8545,6.622013,0.0578388,0.54883705,134.0904,12/31.0/2022,2000,g 12.0,4.0
# From MPEC 2022-C56
331P/Gibbs,e,9.7394,216.7522,184.4911,3.005256,0.1891829,0.04127336,154.8688,12/31.0/2022,2000,g 12.0,4.0
# From MPEC 2016-K18
332P/Ikeya-Murakami,e,9.3801,3.7851,152.3031,3.087742,0.1816530,0.48930401,90.7697,12/31.0/2022,2000,g 18.0,4.0
# From MPEC 2016-EI8
332P-B/Ikeya-Murakami,e,9.3805,3.8028,152.3711,3.082329,0.1821317,0.48970701,359.9699,03/17.0/2016,2000,g 19.0,4.0
# From MPEC 2016-K18
332P-C/Ikeya-Murakami,e,9.3792,3.7856,152.2944,3.087708,0.1816560,0.48930950,90.7853,12/31.0/2022,2000,g 16.5,4.0
# From MPEC 2016-ED0
332P-D/Ikeya-Murakami,e,9.3761,3.7923,152.4393,3.081138,0.1822373,0.48977814,359.9486,03/17.0/2016,2000,g 19.0,4.0
# From MPEC 2016-ED0
332P-E/Ikeya-Murakami,e,9.3774,3.8228,152.2825,3.079877,0.1823493,0.48922008,359.9889,03/17.0/2016,2000,g 21.0,4.0
# From MPEC 2016-ED0
332P-F/Ikeya-Murakami,e,9.5293,3.4757,152.8203,3.163214,0.1751908,0.49918860,359.8501,03/17.0/2016,2000,g 21.0,4.0
# From MPEC 2016-ED0
332P-G/Ikeya-Murakami,e,9.2523,3.6955,154.4000,3.050519,0.1849880,0.49200362,359.9006,03/19.0/2016,2000,g 19.0,4.0
# From MPC100285
332P-H/Ikeya-Murakami,e,9.3797,3.7853,152.2950,3.087891,0.1816398,0.48934484,90.7122,12/31.0/2022,2000,g 19.0,4.0
# From MPEC 2016-ED0
332P-I/Ikeya-Murakami,e,9.3791,3.8048,152.3297,3.081767,0.1821815,0.48955490,359.9360,03/17.0/2016,2000,g 20.5,2.0
# From MPEC 2016-EI8
332P-J/Ikeya-Murakami,e,9.4296,3.6729,152.7712,3.115165,0.1792596,0.49429435,359.8613,03/17.0/2016,2000,g 20.5,2.0
# From MPEC 2020-L06
333P/LINEAR,e,132.0078,115.6621,25.9841,4.221408,0.1136366,0.73643638,280.5444,12/31.0/2022,2000,g 15.0,4.0
# From MPC115888
334P/NEAT,e,20.3957,90.5829,90.0928,6.836022,0.0551441,0.35055993,112.2872,12/31.0/2022,2000,g 10.5,4.0
# From MPEC 2021-U31
335P/Gibbs,e,7.2930,330.8461,162.3057,3.578412,0.1456024,0.54622265,20.5289,12/31.0/2022,2000,g 17.0,4.0
# From MPC105244
336P/McNaught,e,17.8264,298.2677,308.6944,5.036123,0.0872086,0.44395477,188.4439,12/31.0/2022,2000,g 13.5,4.0
# From MPEC 2022-QD9
337P/WISE,e,15.3696,106.0540,161.0650,3.286907,0.1653953,0.49673026,30.2326,12/31.0/2022,2000,g 17.0,4.0
# From MPEC 2022-K19
338P/McNaught,e,25.3865,9.8000,4.4959,3.893765,0.1282772,0.41211678,285.4954,12/31.0/2022,2000,g 12.0,4.0
# From MPC101101
339P/Gibbs,e,5.7332,172.7226,27.4716,3.699681,0.1385025,0.63557950,326.3485,12/31.0/2022,2000,g 17.0,4.0
# From MPC133426
340P/Boattini,e,2.0780,291.6598,36.0176,4.250032,0.1124905,0.28075070,250.7039,12/31.0/2022,2000,g 14.3,4.0
# From MPEC 2022-K19
341P/Gibbs,e,3.7973,29.9678,312.2674,4.290546,0.1109009,0.41574129,266.4848,12/31.0/2022,2000,g 12.5,4.0
# From MPC101101
342P/SOHO,e,11.6672,27.7162,73.2474,3.041319,0.1858280,0.98279253,0.0000,10/19.2810/2021,2000,g  9.0,4.0
# From MPEC 2022-K19
343P/NEAT-LONEOS,e,5.5909,257.1121,137.4802,5.457932,0.0772969,0.58515969,166.9568,12/31.0/2022,2000,g 14.0,4.0
# From MPC109148
344P/Read,e,3.4949,273.1205,140.4435,4.861101,0.0919607,0.42320697,206.7482,12/31.0/2022,2000,g 13.0,4.0
# From MPEC 2022-K19
345P/LINEAR,e,2.7275,154.5147,196.5911,4.034692,0.1216154,0.22150678,286.0379,12/31.0/2022,2000,g 12.0,4.0
# From MPEC 2022-K19
346P/Catalina,e,22.2029,102.4527,335.9607,4.473223,0.1041774,0.50324511,223.5653,12/31.0/2022,2000,g 14.0,4.0
# From MPEC 2022-K19
347P/PANSTARRS,e,11.7541,261.0213,98.4315,3.604270,0.1440384,0.38613624,331.0371,12/31.0/2022,2000,g 15.0,4.0
# From MPEC 2022-ED3
348P/PANSTARRS,e,17.7378,312.9390,135.6795,3.151576,0.1761621,0.30706859,56.6205,12/31.0/2022,2000,g 14.0,4.0
# From MPEC 2022-K19
349P/Lemmon,e,5.4901,331.7541,255.8955,3.576224,0.1457361,0.29840618,285.1671,12/31.0/2022,2000,g 14.0,4.0
# From MPC111775
350P/McNaught,e,7.3638,65.2943,139.6928,4.084629,0.1193920,0.09335071,220.1187,12/31.0/2022,2000,g 14.0,4.0
# From MPC105244
351P/Wiegert-PANSTARRS,e,12.7790,283.4228,352.6747,4.439183,0.1053779,0.29511372,273.9462,12/31.0/2022,2000,g 12.5,4.0
# From MPC110086
352P/Skiff,e,21.0134,28.0023,309.3518,6.645257,0.0575356,0.61781595,116.0561,12/31.0/2022,2000,g 11.5,4.0
# From MPEC 2020-AA5
353P/McNaught,e,28.4114,121.5270,230.4747,4.170599,0.1157195,0.47037568,212.1627,12/31.0/2022,2000,g 14.5,4.0
# From MPC105545
354P/LINEAR,e,5.2525,320.1221,132.6454,2.290848,0.2842560,0.12518603,278.4779,12/31.0/2022,2000,g 15.5,4.0
# From MPEC 2020-AA5
355P/LINEAR-NEAT,e,11.0467,51.4331,336.3110,3.469520,0.1525106,0.50786573,290.2267,12/31.0/2022,2000,g 15.5,2.0
# From MPEC 2022-F14
356P/WISE,e,9.6378,160.7948,226.0508,4.156820,0.1162953,0.35590499,213.6360,12/31.0/2022,2000,g 14.0,4.0
# From MPC114609
357P/Hill,e,6.3162,44.5580,1.4041,4.457847,0.1047168,0.43577919,175.4182,12/31.0/2022,2000,g 15.5,4.0
# From MPEC 2020-HN5
358P/PANSTARRS,e,11.0603,85.7025,299.7777,3.146692,0.1765723,0.23899108,304.3501,12/31.0/2022,2000,g 18.0,4.0
# From MPC110086
359P/LONEOS,e,10.2657,149.7520,200.2717,4.640152,0.0986065,0.32413562,192.8296,12/31.0/2022,2000,g 13.5,4.0
# From MPC108599
360P/WISE,e,24.1118,2.1918,354.2004,3.699885,0.1384910,0.49930770,271.0079,12/31.0/2022,2000,g 19.5,6.0
# From MPC114609
361P/Spacewatch,e,13.9031,203.2585,219.0012,4.935398,0.0898919,0.43904670,147.5403,12/31.0/2022,2000,g 12.0,4.0
# From MPEC 2017-V13
362P/,e,15.5570,192.5449,53.6030,3.971841,0.1245135,0.27874436,289.3264,12/31.0/2022,2000,g 12.9,2.0
# From MPC114609
363P/Lemmon,e,5.4046,146.8781,340.9359,3.567774,0.1462541,0.51992075,260.0816,12/31.0/2022,2000,g 17.5,4.0
# From MPEC 2022-K19
364P/PANSTARRS,e,12.1349,46.1559,212.0114,2.880256,0.2016310,0.72180597,332.9779,12/31.0/2022,2000,g 17.0,2.0
# From MPC111775
365P/PANSTARRS,e,9.8412,86.3238,67.7024,3.158374,0.1755937,0.58140910,310.4248,12/31.0/2022,2000,g 17.0,4.0
# From MPC114610
366P/Spacewatch,e,8.8569,70.7629,153.0426,3.496983,0.1507175,0.34804297,245.1004,12/31.0/2022,2000,g 15.0,4.0
# From MPC112395
367P/Catalina,e,8.4594,58.7184,172.7974,3.507785,0.1500219,0.27973770,248.5081,12/31.0/2022,2000,g 17.5,2.0
# From MPC114610
368P/NEAT,e,15.4822,257.8498,118.9177,5.529531,0.0758004,0.62674845,118.8050,12/31.0/2022,2000,g 14.0,4.0
# From MPC114610
369P/Hill,e,10.3239,47.2915,13.1551,4.381573,0.1074630,0.55539151,165.1225,12/31.0/2022,2000,g 15.0,4.0
# From MPEC 2021-F20
370P/NEAT,e,19.4246,55.0705,356.7047,6.434640,0.0603834,0.61534197,100.4840,12/31.0/2022,2000,g 13.0,4.0
# From MPC114610
371P/LINEAR-Skiff,e,17.3851,67.2442,308.5565,4.180612,0.1153040,0.47710664,178.3418,12/31.0/2022,2000,g 16.0,4.0
# From MPEC 2020-K19
372P/McNaught,e,9.5068,325.8172,27.6248,4.507927,0.1029767,0.15250962,157.4199,12/31.0/2022,2000,g 13.5,4.0
# From MPEC 2021-F20
373P/Rinner,e,13.7697,231.9624,221.0057,3.800876,0.1330083,0.39288535,181.1488,12/31.0/2022,2000,g 14.5,4.0
# From MPC114610
374P/Larson,e,10.7668,7.9148,51.4481,4.971497,0.0889147,0.46337066,128.8495,12/31.0/2022,2000,g 14.0,4.0
# From MPEC 2021-F20
375P/Hill,e,17.3616,359.9468,119.3673,5.550095,0.0753795,0.65894504,110.8887,12/31.0/2022,2000,g 16.0,4.0
# From MPEC 2022-K19
376P/LONEOS,e,1.1718,313.6308,284.9132,5.769292,0.0711247,0.51600480,85.0829,12/31.0/2022,2000,g 12.5,4.0
# From MPEC 2022-N37
377P/Scotti,e,9.0242,226.0671,355.0212,6.703874,0.0567826,0.25140703,51.2473,12/31.0/2022,2000,g  9.5,4.0
# From MPEC 2022-YB4
378P/McNaught,e,19.0610,94.0803,193.6256,6.327811,0.0619190,0.46747019,49.8939,12/31.0/2022,2000,g 12.0,4.0
# From MPC115889
379P/Spacewatch,e,12.4528,183.8401,30.5473,3.507159,0.1500620,0.34429253,186.9018,12/31.0/2022,2000,g 15.0,4.0
# From MPEC 2022-K19
380P/PANSTARRS,e,8.1087,131.3186,86.4608,4.417842,0.1061424,0.34281602,139.8370,12/31.0/2022,2000,g 14.6,4.0
# From MPEC 2021-J28
381P/LINEAR-Spacewatch,e,28.3782,173.7597,173.2892,7.136422,0.0516991,0.68180820,61.5645,12/31.0/2022,2000,g 17.5,2.0
# From MPEC 2022-Y15
382P/Larson,e,8.4393,173.6824,166.0721,6.197156,0.0638874,0.29097829,22.9297,12/31.0/2022,2000,g  8.0,4.0
# From MPEC 2022-OB6
383P/Christensen,e,12.3260,207.8217,133.7783,3.546913,0.1475463,0.59939788,171.3630,12/31.0/2022,2000,g 18.0,4.0
# From MPEC 2022-OB6
384P/Kowalski,e,7.2840,354.2256,37.6400,2.899906,0.1995852,0.61618542,234.6373,12/31.0/2022,2000,g 19.5,4.0
# From MPEC 2021-F20
385P/Hill,e,16.8316,357.0598,44.3432,4.288460,0.1109819,0.40204257,133.4344,12/31.0/2022,2000,g 13.0,4.0
# From MPEC 2021-L04
386P/PANSTARRS,e,15.2315,134.9353,353.1151,4.052848,0.1207991,0.41638944,104.3654,12/31.0/2022,2000,g 14.5,4.0
# From MPEC 2021-J28
387P/Boattini,e,8.9303,259.2527,162.7990,4.796977,0.0938108,0.73675428,113.6114,12/31.0/2022,2000,g 15.0,4.0
# From MPEC 2021-S45
388P/Gibbs,e,23.8881,37.0471,42.2948,5.241144,0.0821419,0.61868352,103.1528,12/31.0/2022,2000,g 13.0,4.0
# From MPEC 2022-OB6
389P/Siding Spring,e,160.0847,218.8786,249.3940,5.633215,0.0737173,0.70442766,80.9005,12/31.0/2022,2000,g 16.0,4.0
# From MPEC 2022-OB6
390P/Gibbs,e,18.5576,152.2708,232.3926,5.809907,0.0703802,0.70744039,71.3173,12/31.0/2022,2000,g 12.0,4.0
# From MPEC 2021-F20
391P/Kowalski,e,21.2676,124.7386,187.3252,4.684081,0.0972227,0.11977953,169.6107,12/31.0/2022,2000,g  8.0,4.0
# From MPEC 2021-J28
392P/LINEAR,e,4.9320,24.8870,71.8744,6.140719,0.0647702,0.68317406,65.0251,12/31.0/2022,2000,g 14.5,4.0
# From MPEC 2021-BE3
393P/Spacewatch-Hill,e,16.7876,36.3933,328.8121,4.792407,0.0939450,0.12058320,108.7866,12/31.0/2022,2000,g 11.0,4.0
# From MPEC 2020-KB7
394P/PANSTARRS,e,8.5296,98.1259,54.4592,4.330285,0.1093778,0.36742438,123.3194,12/31.0/2022,2000,g 16.0,2.4
# From MPEC 2022-Y15
